{
    "links": {
        "self": "http://www.neowsapp.com/rest/v1/neo/54054282?api_key=iIulBulltgU6a56xZRHN4H3l9WmuAYTsLGpBGhQ2"
    },
    "id": "54054282",
    "neo_reference_id": "54054282",
    "name": "(2020 RA6)",
    "designation": "2020 RA6",
    "nasa_jpl_url": "http://ssd.jpl.nasa.gov/sbdb.cgi?sstr=54054282",
    "absolute_magnitude_h": 25.976,
    "estimated_diameter": {
        "kilometers": {
            "estimated_diameter_min": 0.0169572326,
            "estimated_diameter_max": 0.0379175247
        },
        "meters": {
            "estimated_diameter_min": 16.9572325704,
            "estimated_diameter_max": 37.9175247376
        },
        "miles": {
            "estimated_diameter_min": 0.0105367326,
            "estimated_diameter_max": 0.0235608503
        },
        "feet": {
            "estimated_diameter_min": 55.6339669062,
            "estimated_diameter_max": 124.4013318602
        }
    },
    "is_potentially_hazardous_asteroid": false,
    "close_approach_data": [
        {
            "close_approach_date": "2020-09-18",
            "close_approach_date_full": "2020-Sep-18 00:57",
            "epoch_date_close_approach": 1600390620000,
            "relative_velocity": {
                "kilometers_per_second": "17.40770533",
                "kilometers_per_hour": "62667.7391881548",
                "miles_per_hour": "38939.2960527732"
            },
            "miss_distance": {
                "astronomical": "0.003488935",
                "lunar": "1.357195715",
                "kilometers": "521937.24456845",
                "miles": "324316.76500661"
            },
            "orbiting_body": "Earth"
        },
        {
            "close_approach_date": "2020-09-18",
            "close_approach_date_full": "2020-Sep-18 05:48",
            "epoch_date_close_approach": 1600408080000,
            "relative_velocity": {
                "kilometers_per_second": "17.7562299085",
                "kilometers_per_hour": "63922.4276706497",
                "miles_per_hour": "39718.9106823545"
            },
            "miss_distance": {
                "astronomical": "0.0032235859",
                "lunar": "1.2539749151",
                "kilometers": "482241.584402033",
                "miles": "299651.0255447354"
            },
            "orbiting_body": "Moon"
        },
        {
            "close_approach_date": "2069-04-10",
            "close_approach_date_full": "2069-Apr-10 06:09",
            "epoch_date_close_approach": 3132799740000,
            "relative_velocity": {
                "kilometers_per_second": "13.5146921669",
                "kilometers_per_hour": "48652.8918008299",
                "miles_per_hour": "30231.0149081323"
            },
            "miss_distance": {
                "astronomical": "0.0475410704",
                "lunar": "18.4934763856",
                "kilometers": "7112042.869360048",
                "miles": "4419218.5171347424"
            },
            "orbiting_body": "Venus"
        },
        {
            "close_approach_date": "2072-02-19",
            "close_approach_date_full": "2072-Feb-19 22:59",
            "epoch_date_close_approach": 3223148340000,
            "relative_velocity": {
                "kilometers_per_second": "17.9586249209",
                "kilometers_per_hour": "64651.0497153016",
                "miles_per_hour": "40171.6480855995"
            },
            "miss_distance": {
                "astronomical": "0.0624627668",
                "lunar": "24.2980162852",
                "kilometers": "9344296.867586716",
                "miles": "5806276.8328840408"
            },
            "orbiting_body": "Earth"
        },
        {
            "close_approach_date": "2160-11-12",
            "close_approach_date_full": "2160-Nov-12 06:07",
            "epoch_date_close_approach": 6023138820000,
            "relative_velocity": {
                "kilometers_per_second": "14.4144581161",
                "kilometers_per_hour": "51892.0492180543",
                "miles_per_hour": "32243.7013599627"
            },
            "miss_distance": {
                "astronomical": "0.2809529752",
                "lunar": "109.2907073528",
                "kilometers": "42029966.660082824",
                "miles": "26116210.2578140112"
            },
            "orbiting_body": "Earth"
        }
    ],
    "orbital_data": {
        "orbit_id": "7",
        "orbit_determination_date": "2020-11-11 05:27:07",
        "first_observation_date": "2020-09-06",
        "last_observation_date": "2020-09-18",
        "data_arc_in_days": 12,
        "observations_used": 110,
        "orbit_uncertainty": "7",
        "minimum_orbit_intersection": ".00304093",
        "jupiter_tisserand_invariant": "3.607",
        "epoch_osculation": "2459000.5",
        "eccentricity": ".6381549333094376",
        "semi_major_axis": "1.946389904783249",
        "inclination": "7.291350953722355",
        "ascending_node_longitude": "176.7907398212179",
        "orbital_period": "991.8435923352773",
        "perihelion_distance": ".7042915849021321",
        "perihelion_argument": "255.0932172898003",
        "aphelion_distance": "3.188488224664366",
        "perihelion_time": "2459156.939418795246",
        "mean_anomaly": "303.2186776206432",
        "mean_motion": ".3629604534243012",
        "equinox": "J2000",
        "orbit_class": {
            "orbit_class_type": "APO",
            "orbit_class_description": "Near-Earth asteroid orbits which cross the Earth’s orbit similar to that of 1862 Apollo",
            "orbit_class_range": "a (semi-major axis) > 1.0 AU; q (perihelion) < 1.017 AU"
        }
    },
    "is_sentry_object": false
}